[{"OBJECT_NAME":"ARCSTONE","OBJECT_ID":"2025-135N","EPOCH":"2026-03-09T21:21:29.017152","MEAN_MOTION":15.28638458,"ECCENTRICITY":0.00041199,"INCLINATION":97.4495,"RA_OF_ASC_NODE":185.9194,"ARG_OF_PERICENTER":166.7863,"MEAN_ANOMALY":193.3485,"EPHEMERIS_TYPE":0,"CLASSIFICATION_TYPE":"U","NORAD_CAT_ID":64540,"ELEMENT_SET_NO":999,"REV_AT_EPOCH":3984,"BSTAR":0.00094899777,"MEAN_MOTION_DOT":0.00026427,"MEAN_MOTION_DDOT":0},{"OBJECT_NAME":"STARLINK-35786","OBJECT_ID":"2025-294L","EPOCH":"2026-03-09T22:20:00.440160","MEAN_MOTION":15.27593319,"ECCENTRICITY":4.403e-5,"INCLINATION":42.9947,"RA_OF_ASC_NODE":36.9209,"ARG_OF_PERICENTER":105.6907,"MEAN_ANOMALY":254.3993,"EPHEMERIS_TYPE":0,"CLASSIFICATION_TYPE":"U","NORAD_CAT_ID":67040,"ELEMENT_SET_NO":999,"REV_AT_EPOCH":1483,"BSTAR":0.0010747091,"MEAN_MOTION_DOT":0.00029442,"MEAN_MOTION_DDOT":0}]
